[{"OBJECT_NAME":"STARLINK-31518","OBJECT_ID":"2024-046U","EPOCH":"2026-03-09T12:08:47.517792","MEAN_MOTION":15.30188263,"ECCENTRICITY":0.00012374,"INCLINATION":53.16,"RA_OF_ASC_NODE":156.0298,"ARG_OF_PERICENTER":97.9382,"MEAN_ANOMALY":262.176,"EPHEMERIS_TYPE":0,"CLASSIFICATION_TYPE":"U","NORAD_CAT_ID":59219,"ELEMENT_SET_NO":999,"REV_AT_EPOCH":11301,"BSTAR":2.5793471e-5,"MEAN_MOTION_DOT":4.05e-6,"MEAN_MOTION_DDOT":0},{"OBJECT_NAME":"ARIANE 40 R\/B","OBJECT_ID":"1999-064C","EPOCH":"2026-03-09T18:24:37.025280","MEAN_MOTION":15.31364882,"ECCENTRICITY":0.00050095,"INCLINATION":98.1631,"RA_OF_ASC_NODE":150.8872,"ARG_OF_PERICENTER":91.4057,"MEAN_ANOMALY":268.7755,"EPHEMERIS_TYPE":0,"CLASSIFICATION_TYPE":"U","NORAD_CAT_ID":25979,"ELEMENT_SET_NO":999,"REV_AT_EPOCH":42869,"BSTAR":0.00066758353,"MEAN_MOTION_DOT":0.00020173,"MEAN_MOTION_DDOT":0}]
